IRIDIUM 126             
1 42809U 17039G   25281.49360458  .00000144  00000+0  44507-4 0  9992
2 42809  86.3913  98.8740 0002326  91.4696 268.6767 14.34216766433876
IRIDIUM 124             
1 42810U 17039H   25281.38144709  .00000541  00000+0  15497-3 0  9997
2 42810  86.4517  35.6135 0002194  88.5663 271.5790 14.43278764438791
IRIDIUM 128             
1 42811U 17039J   25281.55409896  .00000291  00000+0  96838-4 0  9999
2 42811  86.3955 130.3754 0002067  74.4217 285.7207 14.34217074433911
IRIDIUM 121             
1 42812U 17039K   25281.51262753  .00000136  00000+0  41510-4 0  9990
2 42812  86.3913  98.8919 0002017  86.7445 273.3981 14.34219063433755
IRIDIUM 133             
1 42955U 17061A   25281.58581850  .00000349  00000+0  11753-3 0  9993
2 42955  86.3960 130.4738 0002123  84.4477 275.6961 14.34217597418717
IRIDIUM 100             
1 42956U 17061B   25281.50970801  .00000114  00000+0  33531-4 0  9993
2 42956  86.3953 130.4300 0002274  84.3601 275.7854 14.34218001418702
IRIDIUM 122             
1 42957U 17061C   25281.33845880  .00000175  00000+0  55369-4 0  9993
2 42957  86.3954 130.5011 0002229  84.6745 275.4705 14.34217725418687
IRIDIUM 129             
1 42958U 17061D   25281.50335751  .00000167  00000+0  52623-4 0  9995
2 42958  86.3957 130.4965 0002149  97.8924 262.2515 14.34215787418728
