<?xml version="1.0" encoding="UTF-8"?>
<ndm xmlns:xsi="http://www.w3.org/2001/XMLSchema-instance" xsi:noNamespaceSchemaLocation="https://sanaregistry.org/r/ndmxml_unqualified/ndmxml-2.0.0-master-2.0.xsd">
<omm id="CCSDS_OMM_VERS" version="2.0">
<header><CREATION_DATE/><ORIGINATOR/></header><body><segment><metadata><OBJECT_NAME>IRIDIUM 126</OBJECT_NAME><OBJECT_ID>2017-039G</OBJECT_ID><CENTER_NAME>EARTH</CENTER_NAME><REF_FRAME>TEME</REF_FRAME><TIME_SYSTEM>UTC</TIME_SYSTEM><MEAN_ELEMENT_THEORY>SGP4</MEAN_ELEMENT_THEORY></metadata><data><meanElements><EPOCH>2025-10-08T11:50:47.435712</EPOCH><MEAN_MOTION>14.34216766</MEAN_MOTION><ECCENTRICITY>.00023267</ECCENTRICITY><INCLINATION>86.3913</INCLINATION><RA_OF_ASC_NODE>98.8740</RA_OF_ASC_NODE><ARG_OF_PERICENTER>91.4696</ARG_OF_PERICENTER><MEAN_ANOMALY>268.6767</MEAN_ANOMALY></meanElements><tleParameters><EPHEMERIS_TYPE>0</EPHEMERIS_TYPE><CLASSIFICATION_TYPE>U</CLASSIFICATION_TYPE><NORAD_CAT_ID>42809</NORAD_CAT_ID><ELEMENT_SET_NO>999</ELEMENT_SET_NO><REV_AT_EPOCH>43387</REV_AT_EPOCH><BSTAR>.44507022E-4</BSTAR><MEAN_MOTION_DOT>.144E-5</MEAN_MOTION_DOT><MEAN_MOTION_DDOT>0</MEAN_MOTION_DDOT></tleParameters></data></segment></body></omm>
<omm id="CCSDS_OMM_VERS" version="2.0">
<header><CREATION_DATE/><ORIGINATOR/></header><body><segment><metadata><OBJECT_NAME>IRIDIUM 124</OBJECT_NAME><OBJECT_ID>2017-039H</OBJECT_ID><CENTER_NAME>EARTH</CENTER_NAME><REF_FRAME>TEME</REF_FRAME><TIME_SYSTEM>UTC</TIME_SYSTEM><MEAN_ELEMENT_THEORY>SGP4</MEAN_ELEMENT_THEORY></metadata><data><meanElements><EPOCH>2025-10-08T09:09:17.028576</EPOCH><MEAN_MOTION>14.43278764</MEAN_MOTION><ECCENTRICITY>.00021949</ECCENTRICITY><INCLINATION>86.4517</INCLINATION><RA_OF_ASC_NODE>35.6135</RA_OF_ASC_NODE><ARG_OF_PERICENTER>88.5663</ARG_OF_PERICENTER><MEAN_ANOMALY>271.5790</MEAN_ANOMALY></meanElements><tleParameters><EPHEMERIS_TYPE>0</EPHEMERIS_TYPE><CLASSIFICATION_TYPE>U</CLASSIFICATION_TYPE><NORAD_CAT_ID>42810</NORAD_CAT_ID><ELEMENT_SET_NO>999</ELEMENT_SET_NO><REV_AT_EPOCH>43879</REV_AT_EPOCH><BSTAR>.15497247E-3</BSTAR><MEAN_MOTION_DOT>.541E-5</MEAN_MOTION_DOT><MEAN_MOTION_DDOT>0</MEAN_MOTION_DDOT></tleParameters></data></segment></body></omm>
<omm id="CCSDS_OMM_VERS" version="2.0">
<header><CREATION_DATE/><ORIGINATOR/></header><body><segment><metadata><OBJECT_NAME>IRIDIUM 128</OBJECT_NAME><OBJECT_ID>2017-039J</OBJECT_ID><CENTER_NAME>EARTH</CENTER_NAME><REF_FRAME>TEME</REF_FRAME><TIME_SYSTEM>UTC</TIME_SYSTEM><MEAN_ELEMENT_THEORY>SGP4</MEAN_ELEMENT_THEORY></metadata><data><meanElements><EPOCH>2025-10-08T13:17:54.150144</EPOCH><MEAN_MOTION>14.34217074</MEAN_MOTION><ECCENTRICITY>.0002067</ECCENTRICITY><INCLINATION>86.3955</INCLINATION><RA_OF_ASC_NODE>130.3754</RA_OF_ASC_NODE><ARG_OF_PERICENTER>74.4217</ARG_OF_PERICENTER><MEAN_ANOMALY>285.7207</MEAN_ANOMALY></meanElements><tleParameters><EPHEMERIS_TYPE>0</EPHEMERIS_TYPE><CLASSIFICATION_TYPE>U</CLASSIFICATION_TYPE><NORAD_CAT_ID>42811</NORAD_CAT_ID><ELEMENT_SET_NO>999</ELEMENT_SET_NO><REV_AT_EPOCH>43391</REV_AT_EPOCH><BSTAR>.96838436E-4</BSTAR><MEAN_MOTION_DOT>.291E-5</MEAN_MOTION_DOT><MEAN_MOTION_DDOT>0</MEAN_MOTION_DDOT></tleParameters></data></segment></body></omm>
<omm id="CCSDS_OMM_VERS" version="2.0">
<header><CREATION_DATE/><ORIGINATOR/></header><body><segment><metadata><OBJECT_NAME>IRIDIUM 121</OBJECT_NAME><OBJECT_ID>2017-039K</OBJECT_ID><CENTER_NAME>EARTH</CENTER_NAME><REF_FRAME>TEME</REF_FRAME><TIME_SYSTEM>UTC</TIME_SYSTEM><MEAN_ELEMENT_THEORY>SGP4</MEAN_ELEMENT_THEORY></metadata><data><meanElements><EPOCH>2025-10-08T12:18:11.018592</EPOCH><MEAN_MOTION>14.34219063</MEAN_MOTION><ECCENTRICITY>.00020172</ECCENTRICITY><INCLINATION>86.3913</INCLINATION><RA_OF_ASC_NODE>98.8919</RA_OF_ASC_NODE><ARG_OF_PERICENTER>86.7445</ARG_OF_PERICENTER><MEAN_ANOMALY>273.3981</MEAN_ANOMALY></meanElements><tleParameters><EPHEMERIS_TYPE>0</EPHEMERIS_TYPE><CLASSIFICATION_TYPE>U</CLASSIFICATION_TYPE><NORAD_CAT_ID>42812</NORAD_CAT_ID><ELEMENT_SET_NO>999</ELEMENT_SET_NO><REV_AT_EPOCH>43375</REV_AT_EPOCH><BSTAR>.41509733E-4</BSTAR><MEAN_MOTION_DOT>.136E-5</MEAN_MOTION_DOT><MEAN_MOTION_DDOT>0</MEAN_MOTION_DDOT></tleParameters></data></segment></body></omm>
<omm id="CCSDS_OMM_VERS" version="2.0">
<header><CREATION_DATE/><ORIGINATOR/></header><body><segment><metadata><OBJECT_NAME>IRIDIUM 133</OBJECT_NAME><OBJECT_ID>2017-061A</OBJECT_ID><CENTER_NAME>EARTH</CENTER_NAME><REF_FRAME>TEME</REF_FRAME><TIME_SYSTEM>UTC</TIME_SYSTEM><MEAN_ELEMENT_THEORY>SGP4</MEAN_ELEMENT_THEORY></metadata><data><meanElements><EPOCH>2025-10-08T14:03:34.718400</EPOCH><MEAN_MOTION>14.34217597</MEAN_MOTION><ECCENTRICITY>.00021234</ECCENTRICITY><INCLINATION>86.3960</INCLINATION><RA_OF_ASC_NODE>130.4738</RA_OF_ASC_NODE><ARG_OF_PERICENTER>84.4477</ARG_OF_PERICENTER><MEAN_ANOMALY>275.6961</MEAN_ANOMALY></meanElements><tleParameters><EPHEMERIS_TYPE>0</EPHEMERIS_TYPE><CLASSIFICATION_TYPE>U</CLASSIFICATION_TYPE><NORAD_CAT_ID>42955</NORAD_CAT_ID><ELEMENT_SET_NO>999</ELEMENT_SET_NO><REV_AT_EPOCH>41871</REV_AT_EPOCH><BSTAR>.11752687E-3</BSTAR><MEAN_MOTION_DOT>.349E-5</MEAN_MOTION_DOT><MEAN_MOTION_DDOT>0</MEAN_MOTION_DDOT></tleParameters></data></segment></body></omm>
<omm id="CCSDS_OMM_VERS" version="2.0">
<header><CREATION_DATE/><ORIGINATOR/></header><body><segment><metadata><OBJECT_NAME>IRIDIUM 100</OBJECT_NAME><OBJECT_ID>2017-061B</OBJECT_ID><CENTER_NAME>EARTH</CENTER_NAME><REF_FRAME>TEME</REF_FRAME><TIME_SYSTEM>UTC</TIME_SYSTEM><MEAN_ELEMENT_THEORY>SGP4</MEAN_ELEMENT_THEORY></metadata><data><meanElements><EPOCH>2025-10-08T12:13:58.772064</EPOCH><MEAN_MOTION>14.34218001</MEAN_MOTION><ECCENTRICITY>.00022749</ECCENTRICITY><INCLINATION>86.3953</INCLINATION><RA_OF_ASC_NODE>130.4300</RA_OF_ASC_NODE><ARG_OF_PERICENTER>84.3601</ARG_OF_PERICENTER><MEAN_ANOMALY>275.7854</MEAN_ANOMALY></meanElements><tleParameters><EPHEMERIS_TYPE>0</EPHEMERIS_TYPE><CLASSIFICATION_TYPE>U</CLASSIFICATION_TYPE><NORAD_CAT_ID>42956</NORAD_CAT_ID><ELEMENT_SET_NO>999</ELEMENT_SET_NO><REV_AT_EPOCH>41870</REV_AT_EPOCH><BSTAR>.33530969E-4</BSTAR><MEAN_MOTION_DOT>.114E-5</MEAN_MOTION_DOT><MEAN_MOTION_DDOT>0</MEAN_MOTION_DDOT></tleParameters></data></segment></body></omm>
<omm id="CCSDS_OMM_VERS" version="2.0">
<header><CREATION_DATE/><ORIGINATOR/></header><body><segment><metadata><OBJECT_NAME>IRIDIUM 122</OBJECT_NAME><OBJECT_ID>2017-061C</OBJECT_ID><CENTER_NAME>EARTH</CENTER_NAME><REF_FRAME>TEME</REF_FRAME><TIME_SYSTEM>UTC</TIME_SYSTEM><MEAN_ELEMENT_THEORY>SGP4</MEAN_ELEMENT_THEORY></metadata><data><meanElements><EPOCH>2025-10-08T08:07:22.840320</EPOCH><MEAN_MOTION>14.34217725</MEAN_MOTION><ECCENTRICITY>.00022294</ECCENTRICITY><INCLINATION>86.3954</INCLINATION><RA_OF_ASC_NODE>130.5011</RA_OF_ASC_NODE><ARG_OF_PERICENTER>84.6745</ARG_OF_PERICENTER><MEAN_ANOMALY>275.4705</MEAN_ANOMALY></meanElements><tleParameters><EPHEMERIS_TYPE>0</EPHEMERIS_TYPE><CLASSIFICATION_TYPE>U</CLASSIFICATION_TYPE><NORAD_CAT_ID>42957</NORAD_CAT_ID><ELEMENT_SET_NO>999</ELEMENT_SET_NO><REV_AT_EPOCH>41868</REV_AT_EPOCH><BSTAR>.55369472E-4</BSTAR><MEAN_MOTION_DOT>.175E-5</MEAN_MOTION_DOT><MEAN_MOTION_DDOT>0</MEAN_MOTION_DDOT></tleParameters></data></segment></body></omm>
<omm id="CCSDS_OMM_VERS" version="2.0">
<header><CREATION_DATE/><ORIGINATOR/></header><body><segment><metadata><OBJECT_NAME>IRIDIUM 129</OBJECT_NAME><OBJECT_ID>2017-061D</OBJECT_ID><CENTER_NAME>EARTH</CENTER_NAME><REF_FRAME>TEME</REF_FRAME><TIME_SYSTEM>UTC</TIME_SYSTEM><MEAN_ELEMENT_THEORY>SGP4</MEAN_ELEMENT_THEORY></metadata><data><meanElements><EPOCH>2025-10-08T12:04:50.088864</EPOCH><MEAN_MOTION>14.34215787</MEAN_MOTION><ECCENTRICITY>.0002149</ECCENTRICITY><INCLINATION>86.3957</INCLINATION><RA_OF_ASC_NODE>130.4965</RA_OF_ASC_NODE><ARG_OF_PERICENTER>97.8924</ARG_OF_PERICENTER><MEAN_ANOMALY>262.2515</MEAN_ANOMALY></meanElements><tleParameters><EPHEMERIS_TYPE>0</EPHEMERIS_TYPE><CLASSIFICATION_TYPE>U</CLASSIFICATION_TYPE><NORAD_CAT_ID>42958</NORAD_CAT_ID><ELEMENT_SET_NO>999</ELEMENT_SET_NO><REV_AT_EPOCH>41872</REV_AT_EPOCH><BSTAR>.52623119E-4</BSTAR><MEAN_MOTION_DOT>.167E-5</MEAN_MOTION_DOT><MEAN_MOTION_DDOT>0</MEAN_MOTION_DDOT></tleParameters></data></segment></body></omm>

</ndm>
